STARLINK-35468          
1 66118U 25237E   25320.50002315  .00084005  00000+0  20914-2 0  9993
2 66118  53.1601 211.3200 0000925 121.1771 358.0375 15.39556872  5260
STARLINK-35547          
1 66119U 25237F   25320.40286606  .00141710  00000+0  25041-2 0  9993
2 66119  53.1600 211.6578 0001488  87.7334 272.3846 15.49376987  5188
STARLINK-35553          
1 66120U 25237G   25320.50002315 -.02047893  00000+0 -45183-1 0  9998
2 66120  53.1597 211.2063 0001224  94.1169  81.8464 15.46783889  5264
STARLINK-35631          
1 66121U 25237H   25320.40320988  .00144751  00000+0  25565-2 0  9997
2 66121  53.1602 211.6600 0001681  86.2784 273.8417 15.49378524  5186
STARLINK-35653          
1 66122U 25237J   25320.40254997  .00154369  00000+0  27312-2 0  9992
2 66122  53.1601 211.6570 0001812  87.1075 273.0142 15.49287435  5188
STARLINK-35628          
1 66123U 25237K   25320.40217649  .00131885  00000+0  23355-2 0  9997
2 66123  53.1592 211.6530 0001218  86.3757 273.7392 15.49357999  5189
STARLINK-35645          
1 66124U 25237L   25320.40183189  .00161552  00000+0  28468-2 0  9993
2 66124  53.1601 211.6514 0001925  67.6729 292.4484 15.49371237  5180
STARLINK-35649          
1 66125U 25237M   25320.40149784  .00139689  00000+0  24673-2 0  9997
2 66125  53.1603 211.6494 0001423  81.9465 278.1705 15.49398020  5185
STARLINK-35658          
1 66126U 25237N   25319.83335647 -.00042582  00000+0 -76146-3 0  9998
2 66126  53.1603 214.3600 0001079  89.4937 341.9549 15.49318981  5159
STARLINK-35629          
1 66127U 25237P   25320.40080634  .00154303  00000+0  27216-2 0  9993
2 66127  53.1598 211.6451 0001372  86.6098 273.5068 15.49376059  5189
STARLINK-35612          
1 66128U 25237Q   25320.50002315  .00096612  00000+0  24008-2 0  9999
2 66128  53.1597 211.2688 0000961 115.1792  27.9344 15.39544013  5262
STARLINK-35632          
1 66129U 25237R   25320.50002315 -.01143535  00000+0 -30478-1 0  9997
2 66129  53.1596 211.2180 0000895  89.1925  79.2121 15.40430774  5266
