CCSDS_OMM_VERS = 2.0
CREATION_DATE  = 
ORIGINATOR     = 

OBJECT_NAME    = STARLINK-35468
OBJECT_ID      = 2025-237E
CENTER_NAME    = EARTH
REF_FRAME      = TEME
TIME_SYSTEM    = UTC
MEAN_ELEMENT_THEORY = SGP/SGP4

EPOCH          = 2025-11-16T12:00:02.000160
MEAN_MOTION    = 15.39556872
ECCENTRICITY   = .0000925
INCLINATION    = 53.1601
RA_OF_ASC_NODE = 211.3200
ARG_OF_PERICENTER = 121.1771
MEAN_ANOMALY   = 358.0375

EPHEMERIS_TYPE = 0
CLASSIFICATION_TYPE = U
NORAD_CAT_ID   = 66118
ELEMENT_SET_NO = 999
REV_AT_EPOCH   = 526
BSTAR          = .20914E-2
MEAN_MOTION_DOT = .84005E-3
MEAN_MOTION_DDOT = 0

CCSDS_OMM_VERS = 2.0
CREATION_DATE  = 
ORIGINATOR     = 

OBJECT_NAME    = STARLINK-35547
OBJECT_ID      = 2025-237F
CENTER_NAME    = EARTH
REF_FRAME      = TEME
TIME_SYSTEM    = UTC
MEAN_ELEMENT_THEORY = SGP/SGP4

EPOCH          = 2025-11-16T09:40:07.627584
MEAN_MOTION    = 15.49376987
ECCENTRICITY   = .0001488
INCLINATION    = 53.1600
RA_OF_ASC_NODE = 211.6578
ARG_OF_PERICENTER = 87.7334
MEAN_ANOMALY   = 272.3846

EPHEMERIS_TYPE = 0
CLASSIFICATION_TYPE = U
NORAD_CAT_ID   = 66119
ELEMENT_SET_NO = 999
REV_AT_EPOCH   = 518
BSTAR          = .25041E-2
MEAN_MOTION_DOT = .14171E-2
MEAN_MOTION_DDOT = 0

CCSDS_OMM_VERS = 2.0
CREATION_DATE  = 
ORIGINATOR     = 

OBJECT_NAME    = STARLINK-35553
OBJECT_ID      = 2025-237G
CENTER_NAME    = EARTH
REF_FRAME      = TEME
TIME_SYSTEM    = UTC
MEAN_ELEMENT_THEORY = SGP/SGP4

EPOCH          = 2025-11-16T12:00:02.000160
MEAN_MOTION    = 15.46783889
ECCENTRICITY   = .0001224
INCLINATION    = 53.1597
RA_OF_ASC_NODE = 211.2063
ARG_OF_PERICENTER = 94.1169
MEAN_ANOMALY   = 81.8464

EPHEMERIS_TYPE = 0
CLASSIFICATION_TYPE = U
NORAD_CAT_ID   = 66120
ELEMENT_SET_NO = 999
REV_AT_EPOCH   = 526
BSTAR          = -.45183E-1
MEAN_MOTION_DOT = -.2047893E-1
MEAN_MOTION_DDOT = 0

CCSDS_OMM_VERS = 2.0
CREATION_DATE  = 
ORIGINATOR     = 

OBJECT_NAME    = STARLINK-35631
OBJECT_ID      = 2025-237H
CENTER_NAME    = EARTH
REF_FRAME      = TEME
TIME_SYSTEM    = UTC
MEAN_ELEMENT_THEORY = SGP/SGP4

EPOCH          = 2025-11-16T09:40:37.333632
MEAN_MOTION    = 15.49378524
ECCENTRICITY   = .0001681
INCLINATION    = 53.1602
RA_OF_ASC_NODE = 211.6600
ARG_OF_PERICENTER = 86.2784
MEAN_ANOMALY   = 273.8417

EPHEMERIS_TYPE = 0
CLASSIFICATION_TYPE = U
NORAD_CAT_ID   = 66121
ELEMENT_SET_NO = 999
REV_AT_EPOCH   = 518
BSTAR          = .25565E-2
MEAN_MOTION_DOT = .144751E-2
MEAN_MOTION_DDOT = 0

CCSDS_OMM_VERS = 2.0
CREATION_DATE  = 
ORIGINATOR     = 

OBJECT_NAME    = STARLINK-35653
OBJECT_ID      = 2025-237J
CENTER_NAME    = EARTH
REF_FRAME      = TEME
TIME_SYSTEM    = UTC
MEAN_ELEMENT_THEORY = SGP/SGP4

EPOCH          = 2025-11-16T09:39:40.317408
MEAN_MOTION    = 15.49287435
ECCENTRICITY   = .0001812
INCLINATION    = 53.1601
RA_OF_ASC_NODE = 211.6570
ARG_OF_PERICENTER = 87.1075
MEAN_ANOMALY   = 273.0142

EPHEMERIS_TYPE = 0
CLASSIFICATION_TYPE = U
NORAD_CAT_ID   = 66122
ELEMENT_SET_NO = 999
REV_AT_EPOCH   = 518
BSTAR          = .27312E-2
MEAN_MOTION_DOT = .154369E-2
MEAN_MOTION_DDOT = 0

CCSDS_OMM_VERS = 2.0
CREATION_DATE  = 
ORIGINATOR     = 

OBJECT_NAME    = STARLINK-35628
OBJECT_ID      = 2025-237K
CENTER_NAME    = EARTH
REF_FRAME      = TEME
TIME_SYSTEM    = UTC
MEAN_ELEMENT_THEORY = SGP/SGP4

EPOCH          = 2025-11-16T09:39:08.048736
MEAN_MOTION    = 15.49357999
ECCENTRICITY   = .0001218
INCLINATION    = 53.1592
RA_OF_ASC_NODE = 211.6530
ARG_OF_PERICENTER = 86.3757
MEAN_ANOMALY   = 273.7392

EPHEMERIS_TYPE = 0
CLASSIFICATION_TYPE = U
NORAD_CAT_ID   = 66123
ELEMENT_SET_NO = 999
REV_AT_EPOCH   = 518
BSTAR          = .23355E-2
MEAN_MOTION_DOT = .131885E-2
MEAN_MOTION_DDOT = 0

CCSDS_OMM_VERS = 2.0
CREATION_DATE  = 
ORIGINATOR     = 

OBJECT_NAME    = STARLINK-35645
OBJECT_ID      = 2025-237L
CENTER_NAME    = EARTH
REF_FRAME      = TEME
TIME_SYSTEM    = UTC
MEAN_ELEMENT_THEORY = SGP/SGP4

EPOCH          = 2025-11-16T09:38:38.275296
MEAN_MOTION    = 15.49371237
ECCENTRICITY   = .0001925
INCLINATION    = 53.1601
RA_OF_ASC_NODE = 211.6514
ARG_OF_PERICENTER = 67.6729
MEAN_ANOMALY   = 292.4484

EPHEMERIS_TYPE = 0
CLASSIFICATION_TYPE = U
NORAD_CAT_ID   = 66124
ELEMENT_SET_NO = 999
REV_AT_EPOCH   = 518
BSTAR          = .28468E-2
MEAN_MOTION_DOT = .161552E-2
MEAN_MOTION_DDOT = 0

CCSDS_OMM_VERS = 2.0
CREATION_DATE  = 
ORIGINATOR     = 

OBJECT_NAME    = STARLINK-35649
OBJECT_ID      = 2025-237M
CENTER_NAME    = EARTH
REF_FRAME      = TEME
TIME_SYSTEM    = UTC
MEAN_ELEMENT_THEORY = SGP/SGP4

EPOCH          = 2025-11-16T09:38:09.413376
MEAN_MOTION    = 15.49398020
ECCENTRICITY   = .0001423
INCLINATION    = 53.1603
RA_OF_ASC_NODE = 211.6494
ARG_OF_PERICENTER = 81.9465
MEAN_ANOMALY   = 278.1705

EPHEMERIS_TYPE = 0
CLASSIFICATION_TYPE = U
NORAD_CAT_ID   = 66125
ELEMENT_SET_NO = 999
REV_AT_EPOCH   = 518
BSTAR          = .24673E-2
MEAN_MOTION_DOT = .139689E-2
MEAN_MOTION_DDOT = 0

CCSDS_OMM_VERS = 2.0
CREATION_DATE  = 
ORIGINATOR     = 

OBJECT_NAME    = STARLINK-35658
OBJECT_ID      = 2025-237N
CENTER_NAME    = EARTH
REF_FRAME      = TEME
TIME_SYSTEM    = UTC
MEAN_ELEMENT_THEORY = SGP/SGP4

EPOCH          = 2025-11-15T20:00:01.999008
MEAN_MOTION    = 15.49318981
ECCENTRICITY   = .0001079
INCLINATION    = 53.1603
RA_OF_ASC_NODE = 214.3600
ARG_OF_PERICENTER = 89.4937
MEAN_ANOMALY   = 341.9549

EPHEMERIS_TYPE = 0
CLASSIFICATION_TYPE = U
NORAD_CAT_ID   = 66126
ELEMENT_SET_NO = 999
REV_AT_EPOCH   = 515
BSTAR          = -.76146E-3
MEAN_MOTION_DOT = -.42582E-3
MEAN_MOTION_DDOT = 0

CCSDS_OMM_VERS = 2.0
CREATION_DATE  = 
ORIGINATOR     = 

OBJECT_NAME    = STARLINK-35629
OBJECT_ID      = 2025-237P
CENTER_NAME    = EARTH
REF_FRAME      = TEME
TIME_SYSTEM    = UTC
MEAN_ELEMENT_THEORY = SGP/SGP4

EPOCH          = 2025-11-16T09:37:09.667776
MEAN_MOTION    = 15.49376059
ECCENTRICITY   = .0001372
INCLINATION    = 53.1598
RA_OF_ASC_NODE = 211.6451
ARG_OF_PERICENTER = 86.6098
MEAN_ANOMALY   = 273.5068

EPHEMERIS_TYPE = 0
CLASSIFICATION_TYPE = U
NORAD_CAT_ID   = 66127
ELEMENT_SET_NO = 999
REV_AT_EPOCH   = 518
BSTAR          = .27216E-2
MEAN_MOTION_DOT = .154303E-2
MEAN_MOTION_DDOT = 0

CCSDS_OMM_VERS = 2.0
CREATION_DATE  = 
ORIGINATOR     = 

OBJECT_NAME    = STARLINK-35612
OBJECT_ID      = 2025-237Q
CENTER_NAME    = EARTH
REF_FRAME      = TEME
TIME_SYSTEM    = UTC
MEAN_ELEMENT_THEORY = SGP/SGP4

EPOCH          = 2025-11-16T12:00:02.000160
MEAN_MOTION    = 15.39544013
ECCENTRICITY   = .0000961
INCLINATION    = 53.1597
RA_OF_ASC_NODE = 211.2688
ARG_OF_PERICENTER = 115.1792
MEAN_ANOMALY   = 27.9344

EPHEMERIS_TYPE = 0
CLASSIFICATION_TYPE = U
NORAD_CAT_ID   = 66128
ELEMENT_SET_NO = 999
REV_AT_EPOCH   = 526
BSTAR          = .24008E-2
MEAN_MOTION_DOT = .96612E-3
MEAN_MOTION_DDOT = 0

CCSDS_OMM_VERS = 2.0
CREATION_DATE  = 
ORIGINATOR     = 

OBJECT_NAME    = STARLINK-35632
OBJECT_ID      = 2025-237R
CENTER_NAME    = EARTH
REF_FRAME      = TEME
TIME_SYSTEM    = UTC
MEAN_ELEMENT_THEORY = SGP/SGP4

EPOCH          = 2025-11-16T12:00:02.000160
MEAN_MOTION    = 15.40430774
ECCENTRICITY   = .0000895
INCLINATION    = 53.1596
RA_OF_ASC_NODE = 211.2180
ARG_OF_PERICENTER = 89.1925
MEAN_ANOMALY   = 79.2121

EPHEMERIS_TYPE = 0
CLASSIFICATION_TYPE = U
NORAD_CAT_ID   = 66129
ELEMENT_SET_NO = 999
REV_AT_EPOCH   = 526
BSTAR          = -.30478E-1
MEAN_MOTION_DOT = -.1143535E-1
MEAN_MOTION_DDOT = 0

